DMSP 5D-3 F16 (USA 172) 
1 28054U 03048A   26062.84966756  .00000183  00000+0  11925-3 0  9993
2 28054  98.9997  85.9327 0008206  87.1561  36.8297 14.14459362154598
METEOSAT-9 (MSG-2)      
1 28912U 05049B   26062.59556743  .00000114  00000+0  00000+0 0  9994
2 28912   9.1231  55.1899 0001832 221.0140 145.2732  1.00276803  5940
DMSP 5D-3 F17 (USA 191) 
1 29522U 06050A   26062.73813451  .00000229  00000+0  14063-3 0  9998
2 29522  98.7412  71.4543 0010096   3.9975 356.1278 14.14960828997501
FENGYUN 3A              
1 32958U 08026A   26062.74402182  .00000144  00000+0  88566-4 0  9992
2 32958  98.6791   5.6055 0009819  73.5861 286.6394 14.19544195920447
GOES 14                 
1 35491U 09033A   26062.69783465  .00000115  00000+0  00000+0 0  9996
2 35491   1.4171  84.4315 0002209 297.0894 233.3639  1.00123964  5533
DMSP 5D-3 F18 (USA 210) 
1 35951U 09057A   26062.77196134  .00000330  00000+0  19430-3 0  9993
2 35951  98.8954  43.8214 0010794 185.1934 174.9129 14.14831399844688
EWS-G2 (GOES 15)        
1 36411U 10008A   26062.76647534  .00000008  00000+0  00000+0 0  9998
2 36411   1.0075  85.1610 0001695  23.0222  32.7596  1.00269377 58586
COMS 1                  
1 36744U 10032A   26062.77253118 -.00000356  00000+0  00000+0 0  9993
2 36744   4.5342  76.8785 0001127 279.1640 211.7675  1.00271700 50030
FENGYUN 3B              
1 37214U 10059A   26062.87089303 -.00000193  00000+0 -76488-4 0  9997
2 37214  98.9780 108.3718 0022977 123.8496 345.7701 14.14814297792532
SUOMI NPP               
1 37849U 11061A   26062.82250987  .00000106  00000+0  71267-4 0  9990
2 37849  98.7864   4.4720 0000430 287.6961  72.4168 14.19541551743499
METEOSAT-10 (MSG-3)     
1 38552U 12035B   26062.80044852 -.00000015  00000+0  00000+0 0  9996
2 38552   4.4223  61.4660 0002501 294.0063  94.5172  1.00277243 49800
METOP-B                 
1 38771U 12049A   26062.74336681  .00000146  00000+0  86609-4 0  9999
2 38771  98.6654 116.2789 0001220 298.9685  61.1370 14.21442356698285
INSAT-3D                
1 39216U 13038B   26062.77253088 -.00000352  00000+0  00000+0 0  9991
2 39216   1.6539  83.9225 0001784 240.4092 244.7869  1.00273682 46028
FENGYUN 3C              
1 39260U 13052A   26062.88049760  .00000153  00000+0  98873-4 0  9996
2 39260  98.4882  41.6489 0014114 330.6978  29.3404 14.15726752643667
METEOR-M 2              
1 40069U 14037A   26062.91124902  .00000299  00000+0  15609-3 0  9991
2 40069  98.5011  42.4353 0005696 354.7045   5.4071 14.21426434604367
HIMAWARI-8              
1 40267U 14060A   26062.75694163 -.00000290  00000+0  00000+0 0  9997
2 40267   0.0349 253.5628 0000792  70.7847 250.3122  1.00272040 41702
FENGYUN 2G              
1 40367U 14090A   26062.60497286 -.00000314  00000+0  00000+0 0  9999
2 40367   5.3719  74.0954 0001966 153.5378 251.1881  1.00274754 40943
